[{"OBJECT_NAME":"TIANMU-1 11","OBJECT_ID":"2023-205A","EPOCH":"2026-03-10T00:04:04.804896","MEAN_MOTION":15.25886825,"ECCENTRICITY":0.00089558,"INCLINATION":97.3549,"RA_OF_ASC_NODE":92.1484,"ARG_OF_PERICENTER":7.2987,"MEAN_ANOMALY":352.838,"EPHEMERIS_TYPE":0,"CLASSIFICATION_TYPE":"U","NORAD_CAT_ID":58645,"ELEMENT_SET_NO":999,"REV_AT_EPOCH":12239,"BSTAR":0.00031315232,"MEAN_MOTION_DOT":7.963e-5,"MEAN_MOTION_DDOT":0},{"OBJECT_NAME":"STARLINK-32753","OBJECT_ID":"2024-254V","EPOCH":"2026-03-09T05:09:56.637504","MEAN_MOTION":15.27576831,"ECCENTRICITY":0.00016837,"INCLINATION":42.9998,"RA_OF_ASC_NODE":18.7697,"ARG_OF_PERICENTER":279.1962,"MEAN_ANOMALY":80.87,"EPHEMERIS_TYPE":0,"CLASSIFICATION_TYPE":"U","NORAD_CAT_ID":62481,"ELEMENT_SET_NO":999,"REV_AT_EPOCH":6758,"BSTAR":0.0010958864,"MEAN_MOTION_DOT":0.00030014,"MEAN_MOTION_DDOT":0}]
